RADUGA-1 3              
1 22981U 94008A   26061.86275027 -.00000015  00000+0  00000+0 0  9990
2 22981  14.2132 349.0126 0001856 281.7438 262.7498  1.00322741117417
USA 99 (MILSTAR-1 1)    
1 22988U 94009A   26062.04716120 -.00000208  00000+0  00000+0 0  9997
2 22988  17.4606  28.8510 0004289 303.8855 115.0808  1.00273100 31892
TITAN 4 CENTAUR R/B     
1 22989U 94009B   26061.29882388 -.00000373  00000+0  00000+0 0  9997
2 22989  16.7056  23.8105 0015112 239.9173 119.9412  1.00594988 24210
RADUGA 31               
1 23010U 94012A   26061.92156784 -.00000157  00000+0  00000+0 0  9991
2 23010  14.1778 349.0254 0000660 175.2600  48.7522  1.00206162117281
GORIZONT 30             
1 23108U 94030A   26061.15145175 -.00000305  00000+0  00000+0 0  9991
2 23108  14.1038 348.9812 0005939 288.8177 252.2737  1.00210504116385
UFO 3 (USA 104)         
1 23132U 94035A   26062.08575324 -.00000098  00000+0  00000+0 0  9998
2 23132  12.3203   6.3474 0005712 293.0655 244.3361  1.00265445130636
COSMOS 2282             
1 23168U 94038A   26062.03030856  .00000063  00000+0  00000+0 0  9992
2 23168  13.8873 353.4770 0004606 122.0195 246.0861  1.00240810115940
COSMOS 2291             
1 23267U 94060A   26062.05808873 -.00000126  00000+0  00000+0 0  9992
2 23267  14.1858 350.4262 0006660 240.9312 298.6341  1.00279392115137
SL-12 R/B(2)            
1 23270U 94060D   26061.60509742  .00000092  00000+0  00000+0 0  9990
2 23270  14.2900 350.8863 0006146 152.8431  84.4224  1.00072411114473
EXPRESS 1               
1 23319U 94067A   26061.81101473 -.00000346  00000+0  00000+0 0  9996
2 23319  14.4896   2.8127 0006550 268.3147 297.3423  0.99825210114517
SL-12 R/B(2)            
1 23322U 94067D   26061.12266919 -.00000244  00000+0  00000+0 0  9998
2 23322  13.9267 345.6769 0005760 143.6420  45.9828  1.00237009114936
ELEKTRO (GOMS 1)        
1 23327U 94069A   26061.84072337 -.00000112  00000+0  00000+0 0  9997
2 23327  14.5148 350.1111 0008802 267.6889 279.2825  1.00288860114800
SL-12 R/B(2)            
1 23330U 94069D   26060.21947185 -.00000285  00000+0  00000+0 0  9994
2 23330  14.5145 350.1662 0020439 151.6389  26.7111  1.00107830114573
LUCH                    
1 23426U 94082A   26060.71486684 -.00000309  00000+0  00000+0 0  9999
2 23426  14.7556 355.4323 0005257 233.6398 126.3244  1.00186685114187
RADUGA 32               
1 23448U 94087A   26061.89044495 -.00000164  00000+0  00000+0 0  9997
2 23448  14.3360 351.7773 0008694 269.4293 299.6367  1.00278054131818
SL-12 R/B(2)            
1 23451U 94087D   26061.88476852  .00000058  00000+0  00000+0 0  9997
2 23451  14.3576 351.7908 0008063 136.7978  48.0997  1.00059003 46212
UFO 4 (USA 108)         
1 23467U 95003A   26062.12146009 -.00000033  00000+0  00000+0 0  9993
2 23467   9.6702  13.5729 0003572 330.9121  32.4100  1.00272653113899
