[{"OBJECT_NAME":"RADUGA-1 3","OBJECT_ID":"1994-008A","EPOCH":"2026-03-02T20:42:21.623328","MEAN_MOTION":1.00322741,"ECCENTRICITY":0.0001856,"INCLINATION":14.2132,"RA_OF_ASC_NODE":349.0126,"ARG_OF_PERICENTER":281.7438,"MEAN_ANOMALY":262.7498,"EPHEMERIS_TYPE":0,"CLASSIFICATION_TYPE":"U","NORAD_CAT_ID":22981,"ELEMENT_SET_NO":999,"REV_AT_EPOCH":11741,"BSTAR":0,"MEAN_MOTION_DOT":-1.5e-7,"MEAN_MOTION_DDOT":0},{"OBJECT_NAME":"USA 99 (MILSTAR-1 1)","OBJECT_ID":"1994-009A","EPOCH":"2026-03-03T01:07:54.727680","MEAN_MOTION":1.002731,"ECCENTRICITY":0.0004289,"INCLINATION":17.4606,"RA_OF_ASC_NODE":28.851,"ARG_OF_PERICENTER":303.8855,"MEAN_ANOMALY":115.0808,"EPHEMERIS_TYPE":0,"CLASSIFICATION_TYPE":"U","NORAD_CAT_ID":22988,"ELEMENT_SET_NO":999,"REV_AT_EPOCH":3189,"BSTAR":0,"MEAN_MOTION_DOT":-2.08e-6,"MEAN_MOTION_DDOT":0},{"OBJECT_NAME":"TITAN 4 CENTAUR R/B","OBJECT_ID":"1994-009B","EPOCH":"2026-03-02T07:10:18.383232","MEAN_MOTION":1.00594988,"ECCENTRICITY":0.0015112,"INCLINATION":16.7056,"RA_OF_ASC_NODE":23.8105,"ARG_OF_PERICENTER":239.9173,"MEAN_ANOMALY":119.9412,"EPHEMERIS_TYPE":0,"CLASSIFICATION_TYPE":"U","NORAD_CAT_ID":22989,"ELEMENT_SET_NO":999,"REV_AT_EPOCH":2421,"BSTAR":0,"MEAN_MOTION_DOT":-3.73e-6,"MEAN_MOTION_DDOT":0},{"OBJECT_NAME":"RADUGA 31","OBJECT_ID":"1994-012A","EPOCH":"2026-03-02T22:07:03.461376","MEAN_MOTION":1.00206162,"ECCENTRICITY":6.6e-5,"INCLINATION":14.1778,"RA_OF_ASC_NODE":349.0254,"ARG_OF_PERICENTER":175.26,"MEAN_ANOMALY":48.7522,"EPHEMERIS_TYPE":0,"CLASSIFICATION_TYPE":"U","NORAD_CAT_ID":23010,"ELEMENT_SET_NO":999,"REV_AT_EPOCH":11728,"BSTAR":0,"MEAN_MOTION_DOT":-1.57e-6,"MEAN_MOTION_DDOT":0},{"OBJECT_NAME":"GORIZONT 30","OBJECT_ID":"1994-030A","EPOCH":"2026-03-02T03:38:05.431200","MEAN_MOTION":1.00210504,"ECCENTRICITY":0.00059395,"INCLINATION":14.1038,"RA_OF_ASC_NODE":348.9812,"ARG_OF_PERICENTER":288.8177,"MEAN_ANOMALY":252.2737,"EPHEMERIS_TYPE":0,"CLASSIFICATION_TYPE":"U","NORAD_CAT_ID":23108,"ELEMENT_SET_NO":999,"REV_AT_EPOCH":11638,"BSTAR":0,"MEAN_MOTION_DOT":-3.05e-6,"MEAN_MOTION_DDOT":0},{"OBJECT_NAME":"UFO 3 (USA 104)","OBJECT_ID":"1994-035A","EPOCH":"2026-03-03T02:03:29.079936","MEAN_MOTION":1.00265445,"ECCENTRICITY":0.0005712,"INCLINATION":12.3203,"RA_OF_ASC_NODE":6.3474,"ARG_OF_PERICENTER":293.0655,"MEAN_ANOMALY":244.3361,"EPHEMERIS_TYPE":0,"CLASSIFICATION_TYPE":"U","NORAD_CAT_ID":23132,"ELEMENT_SET_NO":999,"REV_AT_EPOCH":13063,"BSTAR":0,"MEAN_MOTION_DOT":-9.8e-7,"MEAN_MOTION_DDOT":0},{"OBJECT_NAME":"COSMOS 2282","OBJECT_ID":"1994-038A","EPOCH":"2026-03-03T00:43:38.659584","MEAN_MOTION":1.0024081,"ECCENTRICITY":0.0004606,"INCLINATION":13.8873,"RA_OF_ASC_NODE":353.477,"ARG_OF_PERICENTER":122.0195,"MEAN_ANOMALY":246.0861,"EPHEMERIS_TYPE":0,"CLASSIFICATION_TYPE":"U","NORAD_CAT_ID":23168,"ELEMENT_SET_NO":999,"REV_AT_EPOCH":11594,"BSTAR":0,"MEAN_MOTION_DOT":6.3e-7,"MEAN_MOTION_DDOT":0},{"OBJECT_NAME":"COSMOS 2291","OBJECT_ID":"1994-060A","EPOCH":"2026-03-03T01:23:38.866272","MEAN_MOTION":1.00279392,"ECCENTRICITY":0.000666,"INCLINATION":14.1858,"RA_OF_ASC_NODE":350.4262,"ARG_OF_PERICENTER":240.9312,"MEAN_ANOMALY":298.6341,"EPHEMERIS_TYPE":0,"CLASSIFICATION_TYPE":"U","NORAD_CAT_ID":23267,"ELEMENT_SET_NO":999,"REV_AT_EPOCH":11513,"BSTAR":0,"MEAN_MOTION_DOT":-1.26e-6,"MEAN_MOTION_DDOT":0},{"OBJECT_NAME":"SL-12 R/B(2)","OBJECT_ID":"1994-060D","EPOCH":"2026-03-02T14:31:20.417088","MEAN_MOTION":1.00072411,"ECCENTRICITY":0.0006146,"INCLINATION":14.29,"RA_OF_ASC_NODE":350.8863,"ARG_OF_PERICENTER":152.8431,"MEAN_ANOMALY":84.4224,"EPHEMERIS_TYPE":0,"CLASSIFICATION_TYPE":"U","NORAD_CAT_ID":23270,"ELEMENT_SET_NO":999,"REV_AT_EPOCH":11447,"BSTAR":0,"MEAN_MOTION_DOT":9.2e-7,"MEAN_MOTION_DDOT":0},{"OBJECT_NAME":"EXPRESS 1","OBJECT_ID":"1994-067A","EPOCH":"2026-03-02T19:27:51.672672","MEAN_MOTION":0.9982521,"ECCENTRICITY":0.000655,"INCLINATION":14.4896,"RA_OF_ASC_NODE":2.8127,"ARG_OF_PERICENTER":268.3147,"MEAN_ANOMALY":297.3423,"EPHEMERIS_TYPE":0,"CLASSIFICATION_TYPE":"U","NORAD_CAT_ID":23319,"ELEMENT_SET_NO":999,"REV_AT_EPOCH":11451,"BSTAR":0,"MEAN_MOTION_DOT":-3.46e-6,"MEAN_MOTION_DDOT":0},{"OBJECT_NAME":"SL-12 R/B(2)","OBJECT_ID":"1994-067D","EPOCH":"2026-03-02T02:56:38.618016","MEAN_MOTION":1.00237009,"ECCENTRICITY":0.00057606,"INCLINATION":13.9267,"RA_OF_ASC_NODE":345.6769,"ARG_OF_PERICENTER":143.642,"MEAN_ANOMALY":45.9828,"EPHEMERIS_TYPE":0,"CLASSIFICATION_TYPE":"U","NORAD_CAT_ID":23322,"ELEMENT_SET_NO":999,"REV_AT_EPOCH":11493,"BSTAR":0,"MEAN_MOTION_DOT":-2.44e-6,"MEAN_MOTION_DDOT":0},{"OBJECT_NAME":"ELEKTRO (GOMS 1)","OBJECT_ID":"1994-069A","EPOCH":"2026-03-02T20:10:38.499168","MEAN_MOTION":1.0028886,"ECCENTRICITY":0.00088023,"INCLINATION":14.5148,"RA_OF_ASC_NODE":350.1111,"ARG_OF_PERICENTER":267.6889,"MEAN_ANOMALY":279.2825,"EPHEMERIS_TYPE":0,"CLASSIFICATION_TYPE":"U","NORAD_CAT_ID":23327,"ELEMENT_SET_NO":999,"REV_AT_EPOCH":11480,"BSTAR":0,"MEAN_MOTION_DOT":-1.12e-6,"MEAN_MOTION_DDOT":0},{"OBJECT_NAME":"SL-12 R/B(2)","OBJECT_ID":"1994-069D","EPOCH":"2026-03-01T05:16:02.367840","MEAN_MOTION":1.0010783,"ECCENTRICITY":0.0020439,"INCLINATION":14.5145,"RA_OF_ASC_NODE":350.1662,"ARG_OF_PERICENTER":151.6389,"MEAN_ANOMALY":26.7111,"EPHEMERIS_TYPE":0,"CLASSIFICATION_TYPE":"U","NORAD_CAT_ID":23330,"ELEMENT_SET_NO":999,"REV_AT_EPOCH":11457,"BSTAR":0,"MEAN_MOTION_DOT":-2.85e-6,"MEAN_MOTION_DDOT":0},{"OBJECT_NAME":"LUCH","OBJECT_ID":"1994-082A","EPOCH":"2026-03-01T17:09:24.494976","MEAN_MOTION":1.00186685,"ECCENTRICITY":0.00052574,"INCLINATION":14.7556,"RA_OF_ASC_NODE":355.4323,"ARG_OF_PERICENTER":233.6398,"MEAN_ANOMALY":126.3244,"EPHEMERIS_TYPE":0,"CLASSIFICATION_TYPE":"U","NORAD_CAT_ID":23426,"ELEMENT_SET_NO":999,"REV_AT_EPOCH":11418,"BSTAR":0,"MEAN_MOTION_DOT":-3.09e-6,"MEAN_MOTION_DDOT":0},{"OBJECT_NAME":"RADUGA 32","OBJECT_ID":"1994-087A","EPOCH":"2026-03-02T21:22:14.443680","MEAN_MOTION":1.00278054,"ECCENTRICITY":0.0008694,"INCLINATION":14.336,"RA_OF_ASC_NODE":351.7773,"ARG_OF_PERICENTER":269.4293,"MEAN_ANOMALY":299.6367,"EPHEMERIS_TYPE":0,"CLASSIFICATION_TYPE":"U","NORAD_CAT_ID":23448,"ELEMENT_SET_NO":999,"REV_AT_EPOCH":13181,"BSTAR":0,"MEAN_MOTION_DOT":-1.64e-6,"MEAN_MOTION_DDOT":0},{"OBJECT_NAME":"SL-12 R/B(2)","OBJECT_ID":"1994-087D","EPOCH":"2026-03-02T21:14:04.000128","MEAN_MOTION":1.00059003,"ECCENTRICITY":0.0008063,"INCLINATION":14.3576,"RA_OF_ASC_NODE":351.7908,"ARG_OF_PERICENTER":136.7978,"MEAN_ANOMALY":48.0997,"EPHEMERIS_TYPE":0,"CLASSIFICATION_TYPE":"U","NORAD_CAT_ID":23451,"ELEMENT_SET_NO":999,"REV_AT_EPOCH":4621,"BSTAR":0,"MEAN_MOTION_DOT":5.8e-7,"MEAN_MOTION_DDOT":0},{"OBJECT_NAME":"UFO 4 (USA 108)","OBJECT_ID":"1995-003A","EPOCH":"2026-03-03T02:54:54.151776","MEAN_MOTION":1.00272653,"ECCENTRICITY":0.0003572,"INCLINATION":9.6702,"RA_OF_ASC_NODE":13.5729,"ARG_OF_PERICENTER":330.9121,"MEAN_ANOMALY":32.41,"EPHEMERIS_TYPE":0,"CLASSIFICATION_TYPE":"U","NORAD_CAT_ID":23467,"ELEMENT_SET_NO":999,"REV_AT_EPOCH":11389,"BSTAR":0,"MEAN_MOTION_DOT":-3.3e-7,"MEAN_MOTION_DDOT":0}]
